$$SOE
2459580.500000000, A.D. 2022-Jan-01 00:00:00.0000, -3.115747349183627E+08, 2.343491244884012E+08, 1.828591040427671E+07,
2459587.500000000, A.D. 2022-Jan-08 00:00:00.0000, -3.193117349173176E+08, 2.271211713572590E+08, 1.866469058093715E+07,
2459594.500000000, A.D. 2022-Jan-15 00:00:00.0000, -3.267920376132860E+08, 2.197105746909602E+08, 1.902846368788663E+07,
2459601.500000000, A.D. 2022-Jan-22 00:00:00.0000, -3.340135070353943E+08, 2.121259039461129E+08, 1.937716292623265E+07,
2459608.500000000, A.D. 2022-Jan-29 00:00:00.0000, -3.409742262979866E+08, 2.043755889739320E+08, 1.971073272358559E+07,
2459615.500000000, A.D. 2022-Feb-05 00:00:00.0000, -3.476724870341374E+08, 1.964679208121598E+08, 2.002912819618236E+07,
2459622.500000000, A.D. 2022-Feb-12 00:00:00.0000, -3.541067773844956E+08, 1.884110518204589E+08, 2.033231436834002E+07,
2459629.500000000, A.D. 2022-Feb-19 00:00:00.0000, -3.602757698322582E+08, 1.802129974668522E+08, 2.062026546203434E+07,
2459636.500000000, A.D. 2022-Feb-26 00:00:00.0000, -3.661783101698135E+08, 1.718816389897186E+08, 2.089296431546803E+07,
2459643.500000000, A.D. 2022-Mar-05 00:00:00.0000, -3.718134074129400E+08, 1.634247262749106E+08, 2.115040186346959E+07,
2459650.500000000, A.D. 2022-Mar-12 00:00:00.0000, -3.771802244152268E+08, 1.548498808444532E+08, 2.139257665202022E+07,
2459657.500000000, A.D. 2022-Mar-19 00:00:00.0000, -3.822780690858595E+08, 1.461645989518605E+08, 2.161949438079709E+07,
2459664.500000000, A.D. 2022-Mar-26 00:00:00.0000, -3.871063861622489E+08, 1.373762547490213E+08, 2.183116746942843E+07,
2459671.500000000, A.D. 2022-Apr-02 00:00:00.0000, -3.916647494435115E+08, 1.284921034428943E+08, 2.202761463501272E+07,
2459678.500000000, A.D. 2022-Apr-09 00:00:00.0000, -3.959528541867341E+08, 1.195192844236744E+08, 2.220886045474538E+07,
2459685.500000000, A.D. 2022-Apr-16 00:00:00.0000, -3.999705092831718E+08, 1.104648249975926E+08, 2.237493493276560E+07,
2459692.500000000, A.D. 2022-Apr-23 00:00:00.0000, -4.037176304587595E+08, 1.013356457893715E+08, 2.252587327464620E+07,
2459699.500000000, A.D. 2022-Apr-30 00:00:00.0000, -4.071942363477741E+08, 9.213856555228749E+07, 2.266171585609701E+07,
2459706.500000000, A.D. 2022-May-07 00:00:00.0000, -4.104004443562316E+08, 8.288030339954078E+07, 2.278250794240439E+07,
2459713.500000000, A.D. 2022-May-14 00:00:00.0000, -4.133364649014934E+08, 7.356748148307131E+07, 2.288829927823479E+07,
2459720.500000000, A.D. 2022-May-21 00:00:00.0000, -4.160025960373428E+08, 6.420662886497253E+07, 2.297914379480381E+07,
2459727.500000000, A.D. 2022-May-28 00:00:00.0000, -4.183992189267485E+08, 5.480418561174521E+07, 2.305509939881610E+07,
2459734.500000000, A.D. 2022-Jun-04 00:00:00.0000, -4.205267938693890E+08, 4.536650679090391E+07, 2.311622779125728E+07,
2459741.500000000, A.D. 2022-Jun-11 00:00:00.0000, -4.223858567229518E+08, 3.589986636559446E+07, 2.316259430210576E+07,
2459748.500000000, A.D. 2022-Jun-18 00:00:00.0000, -4.239770156639020E+08, 2.641046099453084E+07, 2.319426773770791E+07,
2459755.500000000, A.D. 2022-Jun-25 00:00:00.0000, -4.253009482438880E+08, 1.690441369891170E+07, 2.321132023468316E+07,
2459762.500000000, A.D. 2022-Jul-02 00:00:00.0000, -4.263583985944536E+08, 7.387777326312705E+06, 2.321382710205298E+07,
2459769.500000000, A.D. 2022-Jul-09 00:00:00.0000, -4.271501743773159E+08, -2.133462014945232E+06, 2.320186662970082E+07,
2459776.500000000, A.D. 2022-Jul-16 00:00:00.0000, -4.276771435234519E+08, -1.165338047118200E+07, 2.317551995620629E+07,
2459783.500000000, A.D. 2022-Jul-23 00:00:00.0000, -4.279402329487699E+08, -2.116611083400956E+07, 2.313487120358092E+07,
2459790.500000000, A.D. 2022-Jul-30 00:00:00.0000, -4.279404291546658E+08, -3.066583916292363E+07, 2.308000759678609E+07,
2459797.500000000, A.D. 2022-Aug-06 00:00:00.0000, -4.276787771076099E+08, -4.014680299210869E+07, 2.301101929081644E+07,
2459804.500000000, A.D. 2022-Aug-13 00:00:00.0000, -4.271563782109468E+08, -4.960328836699530E+07, 2.292799920582961E+07,
2459811.500000000, A.D. 2022-Aug-20 00:00:00.0000, -4.263743889290722E+08, -5.902962621605143E+07, 2.283104297283442E+07,
2459818.500000000, A.D. 2022-Aug-27 00:00:00.0000, -4.253340199903007E+08, -6.842018878668255E+07, 2.272024892408674E+07,
2459825.500000000, A.D. 2022-Sep-03 00:00:00.0000, -4.240365359164224E+08, -7.776938625670025E+07, 2.259571809633835E+07,
2459832.500000000, A.D. 2022-Sep-10 00:00:00.0000, -4.224832547846735E+08, -8.707166349774717E+07, 2.245755424056797E+07,
2459839.500000000, A.D. 2022-Sep-17 00:00:00.0000, -4.206755481888223E+08, -9.632149699283534E+07, 2.230586383522488E+07,
2459846.500000000, A.D. 2022-Sep-24 00:00:00.0000, -4.186148413358980E+08, -1.055133919593075E+08, 2.214075609310671E+07,
2459853.500000000, A.D. 2022-Oct-01 00:00:00.0000, -4.163026130363232E+08, -1.146418796995297E+08, 2.196234293781859E+07,
2459860.500000000, A.D. 2022-Oct-08 00:00:00.0000, -4.137403951779666E+08, -1.237015146564654E+08, 2.177073895485185E+07,
2459867.500000000, A.D. 2022-Oct-15 00:00:00.0000, -4.109297726127936E+08, -1.326868699736748E+08, 2.156606150036320E+07,
2459874.500000000, A.D. 2022-Oct-22 00:00:00.0000, -4.078723856340521E+08, -1.415925332434396E+08, 2.134843102961776E+07,
2459881.500000000, A.D. 2022-Oct-29 00:00:00.0000, -4.045699325442874E+08, -1.504131050379898E+08, 2.111797120357369E+07,
2459888.500000000, A.D. 2022-Nov-05 00:00:00.0000, -4.010241702141870E+08, -1.591431974843854E+08, 2.087480880481722E+07,
2459895.500000000, A.D. 2022-Nov-12 00:00:00.0000, -3.972369145964980E+08, -1.677774316179619E+08, 2.061907374644153E+07,
2459902.500000000, A.D. 2022-Nov-19 00:00:00.0000, -3.932100419159442E+08, -1.763104344718005E+08, 2.035089916168945E+07,
2459909.500000000, A.D. 2022-Nov-26 00:00:00.0000, -3.889454902772800E+08, -1.847368363027559E+08, 2.007042151779822E+07,
2459916.500000000, A.D. 2022-Dec-03 00:00:00.0000, -3.844452615305588E+08, -1.930512679674006E+08, 1.977778073802505E+07,
2459923.500000000, A.D. 2022-Dec-10 00:00:00.0000, -3.797114233521642E+08, -2.012483584302822E+08, 1.947312032942091E+07,
2459930.500000000, A.D. 2022-Dec-17 00:00:00.0000, -3.747461115200389E+08, -2.093227324310443E+08, 1.915658751224144E+07,
2459937.500000000, A.D. 2022-Dec-24 00:00:00.0000, -3.695515322768619E+08, -2.172690083787567E+08, 1.882833333578201E+07,
2459944.500000000, A.D. 2022-Dec-31 00:00:00.0000, -3.641299644272105E+08, -2.250817963692672E+08, 1.848851275685681E+07,
2459951.500000000, A.D. 2023-Jan-07 00:00:00.0000, -3.584837610500888E+08, -2.327556953669904E+08, 1.813728474858242E+07,
2459958.500000000, A.D. 2023-Jan-14 00:00:00.0000, -3.526153527979652E+08, -2.402852890588016E+08, 1.777481266072667E+07,
2459965.500000000, A.D. 2023-Jan-21 00:00:00.0000, -3.465272534322420E+08, -2.476651435590000E+08, 1.740126463170813E+07,
2459972.500000000, A.D. 2023-Jan-28 00:00:00.0000, -3.402220639348880E+08, -2.548898071684787E+08, 1.701681370025565E+07,
2459979.500000000, A.D. 2023-Feb-04 00:00:00.0000, -3.337024754129701E+08, -2.619538091670011E+08, 1.662163788389263E+07,
2459986.500000000, A.D. 2023-Feb-11 00:00:00.0000, -3.269712725980131E+08, -2.688516578384181E+08, 1.621592037361272E+07,
2459993.500000000, A.D. 2023-Feb-18 00:00:00.0000, -3.200313380096282E+08, -2.755778385599063E+08, 1.579984978364128E+07,
2460000.500000000, A.D. 2023-Feb-25 00:00:00.0000, -3.128856565278365E+08, -2.821268121272256E+08, 1.537362041933092E+07,
2460007.500000000, A.D. 2023-Mar-04 00:00:00.0000, -3.055373202806391E+08, -2.884930133088593E+08, 1.493743255588961E+07,
2460014.500000000, A.D. 2023-Mar-11 00:00:00.0000, -2.979895338277196E+08, -2.946708496408712E+08, 1.449149272603585E+07,
2460021.500000000, A.D. 2023-Mar-18 00:00:00.0000, -2.902456196027416E+08, -3.006547005251732E+08, 1.403601400893302E+07,
2460028.500000000, A.D. 2023-Mar-25 00:00:00.0000, -2.823090234204731E+08, -3.064389166930283E+08, 1.357121629860169E+07,
2460035.500000000, A.D. 2023-Apr-01 00:00:00.0000, -2.741833196339639E+08, -3.120178196565971E+08, 1.309732654572211E+07,
2460042.500000000, A.D. 2023-Apr-08 00:00:00.0000, -2.658722165668820E+08, -3.173856999411032E+08, 1.261457913004111E+07,
2460049.500000000, A.D. 2023-Apr-15 00:00:00.0000, -2.573795645671752E+08, -3.225368152231700E+08, 1.212321648785968E+07,
2460056.500000000, A.D. 2023-Apr-22 00:00:00.0000, -2.487093648826257E+08, -3.274653914502676E+08, 1.162348957965928E+07,
2460063.500000000, A.D. 2023-Apr-29 00:00:00.0000, -2.398657766348763E+08, -3.321656247142891E+08, 1.111565813163137E+07,
2460070.500000000, A.D. 2023-May-06 00:00:00.0000, -2.308531236637874E+08, -3.366316821243611E+08, 1.059999095863867E+07,
2460077.500000000, A.D. 2023-May-13 00:00:00.0000, -2.216759022289289E+08, -3.408577025994169E+08, 1.007676638544700E+07,
2460084.500000000, A.D. 2023-May-20 00:00:00.0000, -2.123387893422286E+08, -3.448377981009542E+08, 9.546272704574525E+06,
2460091.500000000, A.D. 2023-May-27 00:00:00.0000, -2.028466515448551E+08, -3.485660553686737E+08, 9.008808650350988E+06,
2460098.500000000, A.D. 2023-Jun-03 00:00:00.0000, -1.932045540766306E+08, -3.520365381711015E+08, 8.464683885779426E+06,
2460105.500000000, A.D. 2023-Jun-10 00:00:00.0000, -1.834177704200035E+08, -3.552432901274938E+08, 7.914219498790085E+06,
2460112.500000000, A.D. 2023-Jun-17 00:00:00.0000, -1.734917921351014E+08, -3.581803382072233E+08, 7.357748494790107E+06,
2460119.500000000, A.D. 2023-Jun-24 00:00:00.0000, -1.634323386705633E+08, -3.608416968998206E+08, 6.795616260646373E+06,
2460126.500000000, A.D. 2023-Jul-01 00:00:00.0000, -1.532453668995579E+08, -3.632213722780929E+08, 6.228181044337675E+06,
2460133.500000000, A.D. 2023-Jul-08 00:00:00.0000, -1.429370820529775E+08, -3.653133651843348E+08, 5.655814670427561E+06,
2460140.500000000, A.D. 2023-Jul-15 00:00:00.0000, -1.325139513181127E+08, -3.671116764261082E+08, 5.078903376121834E+06,
2460147.500000000, A.D. 2023-Jul-22 00:00:00.0000, -1.219827165686900E+08, -3.686103150825141E+08, 4.497848359027281E+06,
$$EOE